{
  "norad_id": 62115,
  "name": "STARLINK-32470",
  "history": [
    {
      "epoch": "2026-03-28T12:54:42.460416Z",
      "apogee_km": 483.9327380071845,
      "perigee_km": 482.08022926660306,
      "latitude_deg": -4.923871690730971e-05,
      "longitude_deg": 9.929924746299623,
      "height_km": 482.53100025398675,
      "semi_major_axis_km": 6861.1434836368935,
      "eccentricity": 0.000135,
      "inclination_deg": 43.0011,
      "raan_deg": 29.5639,
      "arg_perigee_deg": 285.804,
      "mean_anomaly_deg": 74.2662,
      "mean_motion_rev_day": 15.27594231
    },
    {
      "epoch": "2026-03-29T03:02:06.350496Z",
      "apogee_km": 483.91346509164214,
      "perigee_km": 481.9690355155062,
      "latitude_deg": -4.380792552177383e-06,
      "longitude_deg": 154.1775070314149,
      "height_km": 482.6203796724542,
      "semi_major_axis_km": 6861.078250303574,
      "eccentricity": 0.0001417,
      "inclination_deg": 43.0017,
      "raan_deg": 26.241,
      "arg_perigee_deg": 275.7723,
      "mean_anomaly_deg": 84.2967,
      "mean_motion_rev_day": 15.27616017
    },
    {
      "epoch": "2026-03-30T02:34:27.138720Z",
      "apogee_km": 484.1240259005208,
      "perigee_km": 481.87631736309504,
      "latitude_deg": 3.103806921267813e-06,
      "longitude_deg": 154.58478117244277,
      "height_km": 483.08053019542393,
      "semi_major_axis_km": 6861.137171631808,
      "eccentricity": 0.0001638,
      "inclination_deg": 43.0018,
      "raan_deg": 20.7016,
      "arg_perigee_deg": 254.3402,
      "mean_anomaly_deg": 105.7269,
      "mean_motion_rev_day": 15.27596339
    },
    {
      "epoch": "2026-03-30T02:34:27.139584Z",
      "apogee_km": 484.1243689573812,
      "perigee_km": 481.87597430623646,
      "latitude_deg": 6.8875726703048845e-06,
      "longitude_deg": 154.58478159750337,
      "height_km": 483.0806227823609,
      "semi_major_axis_km": 6861.137171631808,
      "eccentricity": 0.00016385,
      "inclination_deg": 43.0018,
      "raan_deg": 20.7016,
      "arg_perigee_deg": 254.3402,
      "mean_anomaly_deg": 105.7269,
      "mean_motion_rev_day": 15.27596339
    },
    {
      "epoch": "2026-03-30T11:59:23.069184Z",
      "apogee_km": 484.9566927995156,
      "perigee_km": 480.96325991539743,
      "latitude_deg": -1.1068173800681698e-05,
      "longitude_deg": 10.749040581170354,
      "height_km": 482.58446765378284,
      "semi_major_axis_km": 6861.096976357457,
      "eccentricity": 0.00029102,
      "inclination_deg": 43.0047,
      "raan_deg": 18.4856,
      "arg_perigee_deg": 274.4189,
      "mean_anomaly_deg": 85.633,
      "mean_motion_rev_day": 15.27609763
    },
    {
      "epoch": "2026-03-30T19:50:11.036832Z",
      "apogee_km": 483.82121626158096,
      "perigee_km": 482.3793958540855,
      "latitude_deg": -2.6983127280599e-05,
      "longitude_deg": -109.11809199304788,
      "height_km": 482.97620802955515,
      "semi_major_axis_km": 6861.237306057833,
      "eccentricity": 0.00010507,
      "inclination_deg": 43.0025,
      "raan_deg": 16.6406,
      "arg_perigee_deg": 262.0878,
      "mean_anomaly_deg": 97.9854,
      "mean_motion_rev_day": 15.27562898
    },
    {
      "epoch": "2026-03-31T19:22:32.766816Z",
      "apogee_km": 483.3826305811808,
      "perigee_km": 482.69376859114254,
      "latitude_deg": -3.46246872350225e-05,
      "longitude_deg": -108.71356795983861,
      "height_km": 482.97176193684976,
      "semi_major_axis_km": 6861.175199586161,
      "eccentricity": 5.02e-05,
      "inclination_deg": 43.0022,
      "raan_deg": 11.1024,
      "arg_perigee_deg": 242.7912,
      "mean_anomaly_deg": 117.2888,
      "mean_motion_rev_day": 15.27583639
    }
  ]
}